357P/Hill,e,6.3146,44.5805,1.4458,4.456188,0.1047753,0.43612926,225.0392,04/19.0/2024,2000,g 15.5,4.0
# From MPEC 2024-EF7
358P/PANSTARRS,e,11.0642,85.6663,299.6098,3.149579,0.1763296,0.23976174,28.3096,04/19.0/2024,2000,g 18.0,4.0
# From MPC110086
359P/LONEOS,e,10.2639,149.7736,200.2928,4.641196,0.0985733,0.32360368,239.5484,04/19.0/2024,2000,g 13.5,4.0
# From MPC108599
360P/WISE,e,24.1084,2.2136,354.2349,3.697329,0.1386347,0.49917384,336.7461,04/19.0/2024,2000,g 19.5,6.0
# From MPEC 2023-CD7
361P/Spacewatch,e,13.9024,203.2553,219.0546,4.933678,0.0899390,0.43954396,190.1359,04/19.0/2024,2000,g 12.0,4.0
# From MPEC 2017-V13
362P/,e,15.5550,192.4949,53.5428,3.973527,0.1244342,0.27870171,348.5273,04/19.0/2024,2000,g 12.9,2.0
# From MPC114609
363P/Lemmon,e,5.3896,146.6582,340.8625,3.576547,0.1457163,0.51893895,329.6632,04/19.0/2024,2000,g 17.5,4.0
# From MPEC 2023-XP6
364P/PANSTARRS,e,12.1309,46.1496,212.1171,2.884950,0.2011392,0.72182581,68.5623,04/19.0/2024,2000,g 17.0,2.0
# From MPC111775
365P/PANSTARRS,e,9.8495,86.6566,67.4292,3.156456,0.1757537,0.58141413,33.8507,04/19.0/2024,2000,g 17.0,4.0
# From MPC114610
366P/Spacewatch,e,8.8570,70.7235,153.0250,3.498467,0.1506217,0.34832191,316.7727,04/19.0/2024,2000,g 15.0,4.0
# From MPC112395
367P/Catalina,e,8.4597,58.6610,172.7344,3.510084,0.1498745,0.27985119,319.8762,04/19.0/2024,2000,g 17.5,2.0
# From MPC114610
368P/NEAT,e,15.4812,257.8682,118.9520,5.532456,0.0757403,0.62636676,154.6589,04/19.0/2024,2000,g 14.0,4.0
# From MPC114610
369P/Hill,e,10.3227,47.2978,13.1885,4.379895,0.1075248,0.55589257,216.0757,04/19.0/2024,2000,g 15.0,4.0
# From MPEC 2021-F20
370P/NEAT,e,19.4238,55.0814,356.7401,6.437179,0.0603477,0.61552796,129.0053,04/19.0/2024,2000,g 13.0,4.0
# From MPC114610
371P/LINEAR-Skiff,e,17.3848,67.2837,308.5616,4.180482,0.1153093,0.47694399,232.9911,04/19.0/2024,2000,g 16.0,4.0
# From MPEC 2020-K19
372P/McNaught,e,9.5075,27.5509,326.0189,4.510653,0.1028833,0.15182276,206.1368,04/19.0/2024,2000,g 13.5,4.0
# From MPEC 2021-F20
373P/Rinner,e,13.7703,231.9458,221.0540,3.798825,0.1331160,0.39356843,244.3303,04/19.0/2024,2000,g 14.5,4.0
# From MPC114610
374P/Larson,e,10.7655,7.9050,51.5022,4.971050,0.0889266,0.46376016,170.9584,04/19.0/2024,2000,g 14.0,4.0
# From MPEC 2021-F20
375P/Hill,e,17.3658,359.8963,119.3812,5.547005,0.0754425,0.65972837,146.7315,04/19.0/2024,2000,g 16.0,4.0
# From MPEC 2022-K19
376P/LONEOS,e,1.1663,312.8867,285.4110,5.757633,0.0713408,0.51407826,119.6540,04/19.0/2024,2000,g 12.5,4.0
# From MPEC 2022-N37
377P/Scotti,e,9.0245,226.0372,354.8944,6.698017,0.0568571,0.25108486,78.4199,04/19.0/2024,2000,g  9.5,4.0
# From MPEC 2024-D33
378P/McNaught,e,19.1325,93.8406,193.4178,6.295717,0.0623931,0.46540634,80.1935,04/19.0/2024,2000,g 12.0,4.0
# From MPC115889
379P/Spacewatch,e,12.4461,30.5473,184.2267,3.491243,0.1510894,0.34950073,258.1249,04/19.0/2024,2000,g 15.0,4.0
# From MPEC 2023-C45
380P/PANSTARRS,e,8.0144,128.2659,87.8789,4.422901,0.1059603,0.33811226,193.3417,04/19.0/2024,2000,g 12.5,4.0
# From MPEC 2021-J28
381P/LINEAR-Spacewatch,e,28.3623,173.2896,173.8461,7.142971,0.0516281,0.68121087,86.0361,04/19.0/2024,2000,g 17.5,2.0
# From MPEC 2024-EF7
382P/Larson,e,8.2842,172.2225,162.4979,5.963051,0.0676864,0.27206925,59.4452,04/19.0/2024,2000,g  8.0,4.0
# From MPEC 2022-OB6
383P/Christensen,e,12.3210,207.8510,133.7576,3.547962,0.1474808,0.59884416,241.3718,04/19.0/2024,2000,g 18.0,4.0
# From MPEC 2022-OB6
384P/Kowalski,e,7.2832,354.2010,37.7059,2.898453,0.1997352,0.61629898,329.4126,04/19.0/2024,2000,g 19.5,4.0
# From MPEC 2021-F20
385P/Hill,e,16.8285,357.0683,44.3959,4.288735,0.1109712,0.40213145,186.0118,04/19.0/2024,2000,g 13.0,4.0
# From MPEC 2021-L04
386P/PANSTARRS,e,15.2397,134.9184,353.0804,4.050573,0.1209009,0.41701141,161.8187,04/19.0/2024,2000,g 14.5,4.0
# From MPEC 2021-J28
387P/Boattini,e,8.9352,259.2452,162.8229,4.797077,0.0938078,0.73709214,158.0592,04/19.0/2024,2000,g 15.0,4.0
# From MPEC 2021-S45
388P/Gibbs,e,23.8901,37.0312,42.3187,5.240587,0.0821550,0.61924858,142.0822,04/19.0/2024,2000,g 13.0,4.0
# From MPEC 2022-OB6
389P/Siding Spring,e,160.0862,218.8821,249.3851,5.632792,0.0737256,0.70504428,115.8506,04/19.0/2024,2000,g 16.0,4.0
# From MPEC 2024-EF7
390P/Gibbs,e,18.5397,152.2420,232.4789,5.814682,0.0702935,0.70722753,104.6054,04/19.0/2024,2000,g 12.0,4.0
# From MPEC 2021-F20
391P/Kowalski,e,21.2614,124.7891,187.2001,4.688190,0.0970949,0.11883810,215.8319,04/19.0/2024,2000,g  8.0,4.0
# From MPEC 2021-J28
392P/LINEAR,e,4.9316,24.8497,71.8942,6.140762,0.0647695,0.68373128,95.7302,04/19.0/2024,2000,g 14.5,4.0
# From MPEC 2023-T65
393P/Spacewatch-Hill,e,16.7873,36.3924,329.1594,4.796962,0.0938112,0.11989085,153.0252,04/19.0/2024,2000,g 11.0,4.0
# From MPEC 2020-KB7
394P/PANSTARRS,e,8.5295,98.1245,54.4033,4.328507,0.1094453,0.36778213,175.3820,04/19.0/2024,2000,g 16.0,2.4
# From MPEC 2024-C04
395P/Catalina-NEAT,e,3.5824,221.0353,99.7101,7.178110,0.0512494,0.41516387,40.4880,04/19.0/2024,2000,g 10.0,4.0
# From MPEC 2020-KB7
396P/,e,5.4394,136.6256,8.3155,6.800692,0.0555744,0.41637210,94.2659,04/19.0/2024,2000,g 12.0,4.0
# From MPEC 2022-OB6
397P/Lemmon,e,10.9256,8.2255,14.5569,3.831245,0.1314299,0.40504271,183.8452,04/19.0/2024,2000,g 12.0,4.0
# From MPEC 2021-L04
398P/Boattini,e,11.0221,320.1505,127.5010,3.125563,0.1783659,0.58356672,215.5369,04/19.0/2024,2000,g 15.5,4.0
# From MPEC 2023-XP6
399P/PANSTARRS,e,13.3213,207.1299,214.3950,3.793003,0.1334226,0.44744030,141.6621,04/19.0/2024,2000,g 14.0,4.0
# From MPEC 2022-ED3
400P/PANSTARRS,e,10.9295,176.4037,238.8588,3.561929,0.1466143,0.40971837,170.5187,04/19.0/2024,2000,g 15.5,2.8
# From MPEC 2022-K19
401P/McNaught,e,12.8016,359.9072,309.4219,5.777885,0.0709661,0.57876592,113.3066,04/19.0/2024,2000,g 12.5,4.0
# From MPEC 2024-F34
402P/LINEAR,e,30.8330,123.0703,326.8580,7.033824,0.0528344,0.43994654,45.2046,04/19.0/2024,2000,g  8.0,4.0
# From MPEC 2021-J28
403P/Catalina,e,12.3281,277.5785,163.8960,5.430426,0.0778849,0.50426682,102.0086,04/19.0/2024,2000,g 12.0,4.0
# From MPEC 2024-GJ3
404P/Bressi,e,9.8016,260.0366,169.3572,4.728246,0.0958637,0.12595898,16.0103,04/19.0/2024,2000,g 10.0,4.0
# From MPEC 2021-L04
405P/Lemmon,e,9.3749,112.1899,3.2950,3.604826,0.1440050,0.68983543,174.4225,04/19.0/2024,2000,g 17.5,4.0
# From MPEC 2021-F20
406P/Gibbs,e,1.2111,352.4148,11.5418,3.578307,0.1456088,0.54155968,190.9081,04/19.0/2024,2000,g 17.0,4.0
# From MPEC 2022-YN2
407P/PANSTARRS-Fuls,e,4.8760,80.2485,93.4742,3.485098,0.1514891,0.37701797,234.5927,04/19.0/2024,2000,g 14.0,4.0
# From MPEC 2024-GJ3
408P/Novichonok-Gerke,e,19.3563,189.4439,226.5792,4.743366,0.0954057,0.26868009,53.5521,04/19.0/2024,2000,g 11.0,4.0
# From MPEC 2022-ED3
409P/LONEOS-Hill,e,17.1337,143.6486,15.0568,6.034210,0.0664926,0.70984299,78.2556,04/19.0/2024,2000,g 14.0,4.0
# From MPEC 2022-M21
410P/NEAT-LINEAR,e,9.3890,139.9702,313.1563,6.647851,0.0575019,0.51162730,59.2144,04/19.0/2024,2000,g 12.5,4.0
# From MPEC 2021-J28
411P/Christensen,e,12.3888,77.6528,46.5557,5.811358,0.0703538,0.58137667,83.0325,04/19.0/2024,2000,g 13.5,4.0
# From MPEC 2021-F20
412P/WISE,e,8.9310,0.8457,155.8983,3.110544,0.1796592,0.47894029,221.3238,04/19.0/2024,2000,g 17.0,4.0
# From MPEC 2022-OB6
413P/Larson,e,15.9788,39.2287,186.5438,3.731945,0.1367103,0.41965049,137.4336,04/19.0/2024,2000,g 14.0,4.0
# From MPEC 2021-BE3
414P/STEREO,e,23.4067,257.8179,210.6864,2.792844,0.2111709,0.81210093,249.0575,04/19.0/2024,2000,g 19.0,4.0
# From MPEC 2022-J42
415P/Tenagra,e,31.7972,160.2701,345.8846,4.109805,0.1182966,0.19506894,137.2841,04/19.0/2024,2000,g 12.0,4.0
# From MPEC 2021-L04
416P/Scotti,e,3.3618,355.7661,134.4082,4.007821,0.1228405,0.45496185,142.2836,04/19.0/2024,2000,g 15.5,4.0
# From MPEC 2021-W31
417P/NEOWISE,e,8.3128,124.0054,115.7090,3.308819,0.1637550,0.57070429,177.6931,04/19.0/2024,2000,g 16.5,4.0
# From MPEC 2022-TA0
418P/LINEAR,e,5.7802,277.6482,307.3691,5.094249,0.0857203,0.66377686,78.4516,04/19.0/2024,2000,g 13.0,4.0
# From MPEC 2023-UR6
419P/PANSTARRS,e,2.8012,40.4109,187.8703,3.527507,0.1487655,0.27602524,134.5570,04/19.0/2024,2000,g 12.5,4.0
# From MPEC 2024-C04
420P/Hill,e,14.4851,173.7918,156.5483,5.503233,0.0763444,0.49546027,53.4401,04/19.0/2024,2000,g 11.5,4.0
# From MPEC 2021-W31
421P/McNaught,e,10.0757,55.3314,259.8971,5.076316,0.0861750,0.67469640,101.6911,04/19.0/2024,2000,g 14.0,4.0
# From MPEC 2022-X67
422P/Christensen,e,39.5835,36.0248,304.8365,6.282208,0.0625944,0.50636063,51.8334,04/19.0/2024,2000,g 11.0,4.0
# From MPEC 2023-FK0
423P/Lemmon,e,8.3457,33.2981,80.5375,6.176360,0.0642104,0.12243986,60.3751,04/19.0/2024,2000,g  8.0,4.0
# From MPEC 2022-CN4
424P/LaSagra,e,8.6830,51.1927,312.5507,4.419362,0.1060876,0.69094151,95.5325,04/19.0/2024,2000,g 17.0,4.0
# From MPEC 2024-C04
425P/Kowalski,e,16.4204,210.0754,200.9082,6.345971,0.0616534,0.54402907,58.0139,04/19.0/2024,2000,g 12.0,4.0
# From MPEC 2024-A43
426P/PANSTARRS,e,17.7801,280.3949,118.5931,3.188054,0.1731473,0.16146212,38.2176,04/19.0/2024,2000,g 13.5,4.0
# From MPEC 2023-J29
428P/Gibbs,e,8.5060,299.3285,36.9025,3.487166,0.1513545,0.51871352,162.0767,04/19.0/2024,2000,g 15.0,4.0
# From MPEC 2024-EF7
429P/LINEAR-Hill,e,7.5166,322.0513,75.6627,3.554437,0.1470781,0.49129667,123.2033,04/19.0/2024,2000,g 15.5,4.0
# From MPEC 2022-L66
430P/Scotti,e,4.4752,54.6688,94.4240,3.104219,0.1802086,0.49983267,156.5606,04/19.0/2024,2000,g 16.5,4.0
# From MPEC 2024-EF7
431P/Scotti,e,22.3905,202.8432,199.9599,3.475783,0.1520986,0.47771552,120.9837,04/19.0/2024,2000,g 14.0,4.0
# From MPEC 2021-U31
432P/PANSTARRS,e,10.0683,239.1296,105.3237,3.036984,0.1862260,0.24131708,179.3319,04/19.0/2024,2000,g 17.0,4.0
# From MPEC 2024-D33
434P/Tenagra,e,6.3361,288.9362,128.3117,4.133583,0.1172774,0.27469670,106.1494,04/19.0/2024,2000,g 13.0,4.0
# From MPEC 2021-W31
435P/PANSTARRS,e,18.8749,98.5348,244.2441,3.020372,0.1877645,0.31801345,187.1812,04/19.0/2024,2000,g 17.0,4.0
# From MPEC 2022-X67
